#aV2015  3 28  0  0  0.00000000     288 DD+AD WGS84 FIT  NGA
## 1837 518400.00000000   300.00000000 57109 0.0000000000000
+   31     1  2  3  4  5  6  7  8  9 10 11 12 13 14 15 16 17
+         18 19 20 21 22 23 24 25 27 28 29 30 31 32  0  0  0
+          0  0  0  0  0  0  0  0  0  0  0  0  0  0  0  0  0
+          0  0  0  0  0  0  0  0  0  0  0  0  0  0  0  0  0
+          0  0  0  0  0  0  0  0  0  0  0  0  0  0  0  0  0
++         2  2  2  2  2  2  2  2  2  2  2  2  2  2  2  2  2
++         2  2  2  2  2  2  2  2  2  2  2  2  2  2  0  0  0
++         0  0  0  0  0  0  0  0  0  0  0  0  0  0  0  0  0
++         0  0  0  0  0  0  0  0  0  0  0  0  0  0  0  0  0
++         0  0  0  0  0  0  0  0  0  0  0  0  0  0  0  0  0
%c cc cc ccc ccc cccc cccc cccc cccc ccccc ccccc ccccc ccccc
%c cc cc ccc ccc cccc cccc cccc cccc ccccc ccccc ccccc ccccc
%f  0.0000000  0.000000000  0.00000000000  0.000000000000000
%f  0.0000000  0.000000000  0.00000000000  0.000000000000000
%i    0    0    0    0      0      0      0      0         0
%i    0    0    0    0      0      0      0      0         0
/*      NGA, ST. LOUIS,MO.                                  
/*   EPHEMERIS COMPUTED FROM  1 DAYS OF DATA                
/*   EPOCHA SMOOTHER                                       
/* CCCCCCCCCCCCCCCCCCCCCCCCCCCCCCCCCCCCCCCCCCCCCCCCCCCCCCCCC
*  2015  3 28 19  5  0.00000000
P  1 -21719.544162 -13722.203991  -7148.483647     -7.440187                    
V  1   9257.839376    917.834019 -29917.549495      0.004430                    
P  2   2030.511792  16826.707108  20900.981768    556.347619                    
V  2 -24518.302520  -7751.738652   8311.241242      0.023123                    
P  3 -13352.400787 -17570.349640  14759.268079    274.693659                    
V  3   -933.566702 -18841.056521 -23329.705564      0.156186                    
P  4 -14246.976793 -16952.912212 -15174.392322     -9.955337                    
V  4  18303.962826   4267.242191 -22160.177385     -0.008783                    
P  5   2820.145130  26212.899806   2245.852799   -260.984766                    
V  5  -3841.439853  -2322.198720  31388.989910      0.048802                    
P  6 -14282.033764   9672.810863  20193.667968    120.950035                    
V  6 -23630.465740 -10010.598056 -11927.326877      0.102447                    
P  7 -25381.750221  -6034.919833  -5826.975314    451.185459                    
V  7  -6088.841769  -4782.693875  30597.845487      0.028502                    
P  8   1355.093714 -15417.156000  21880.437718     18.937366                    
V  8  23916.421329  12755.129291   6974.609076      0.003924                    
P  9 -21002.795049   2699.762797  16030.674544   -124.275969                    
V  9  14473.800048 -14478.572765  21372.273543     -0.091489                    
P 10 -10694.878147  15872.002370  17853.830932   -168.843965                    
V 10  -5772.718136 -23051.652813  17099.070165     -0.013634                    
P 11 -18258.060186 -12643.208134 -15191.386833   -567.502298                    
V 11  18634.241840  -2754.048512 -20690.434085     -0.025884                    
P 12  10814.049732  20760.069815  12676.160328    280.289488                    
V 12    461.279228  16165.523867 -26461.484405      0.030537                    
P 13  -5688.683653  18538.127469 -18355.426285   -100.705281                    
V 13 -19893.515816  11448.681753  17755.233904     -0.033656                    
P 14  21269.568465 -15745.554701   1066.955974     75.046169                    
V 14   2457.529663   1637.164732 -31952.832001     -0.027890                    
P 15   8255.847554  13723.977442 -21250.195386   -240.329518                    
V 15 -20404.915444  17561.289307   3745.805199     -0.022082                    
P 16  -1020.649828 -26219.787766   2361.581685   -143.917281                    
V 16   2485.635470   2876.725741  32465.264253      0.035144                    
P 17 -21555.081559  15268.872659   -972.665531   -163.447354                    
V 17   -317.231380  -3091.434972 -32099.589371     -0.019253                    
P 18  15632.383688  -1977.183959 -20903.397075    389.726637                    
V 18   4999.921367  27362.702565    819.364006      0.028439                    
P 19  -3242.169565 -15541.402386 -21398.152594   -505.496695                    
V 19  22686.937404 -14310.395605   7469.196737     -0.012874                    
P 20  -6939.385136  20437.515089  15275.985409    304.471171                    
V 20  -7288.086004 -18641.796214  21473.221152      0.039970                    
P 21  25072.694361   2568.413434  -8258.823054   -430.997089                    
V 21   9589.200733   6913.985411  28470.922175     -0.038363                    
P 22  11304.920617 -15229.907014 -18300.277178    333.544191                    
V 22   6346.644377  23134.823152 -15321.520586      0.042319                    
P 23 -15204.836412  -6938.337377  20862.949320    -98.169338                    
V 23  19903.271664 -16948.662844   8498.117277     -0.025419                    
P 24  19932.171576  14661.338415  -9883.258739    -45.730563                    
V 24 -12601.603316  -1807.661494 -28049.787404     -0.006185                    
P 25  15111.408827   8350.460666  20142.546992    -14.789175                    
V 25   3319.419211  25474.882132 -12832.988726     -0.032787                    
P 27   7090.446902 -20036.719166 -15871.464573     61.074136                    
V 27  16760.645228 -11366.956135  21954.411305      0.026641                    
P 28 -12569.180925  10143.309790 -20446.707818    429.108267                    
V 28  -3349.775297 -27147.062936 -11162.863086      0.026833                    
P 29  19266.199355   1308.171423  18244.591920    600.844395                    
V 29 -17812.426902  14761.981965  17828.275608      0.024099                    
P 30 -21701.242458   1744.427876 -15262.651617    -76.510144                    
V 30 -16656.992158 -10062.121814  22495.722407      0.031434                    
P 31  11685.109836 -10852.607667  21430.104202    320.024507                    
V 31  24581.342421  10662.884817  -7721.069576     -0.009632                    
P 32  -4011.896905 -26425.481700   2636.250857   -189.973944                    
V 32   2479.561171  -3521.895752 -30871.274969      0.094741                    
EOF
